0 TITAN 3C TRANSTAGE DEB
1 02789U 65082KR  13280.76569351  .00001630  00000-0  33295-3 0  6456
2 02789 032.2876 148.8852 0121411 248.6672 110.0976 14.54470665418477
0 TITAN 3C TRANSTAGE DEB
1 02789U 65082KR  13281.72660478  .00002201  00000-0  45252-3 0  6467
2 02789 032.2876 143.2810 0121385 257.1807 101.5252 14.54478502418611
0 TITAN 3C TRANSTAGE DEB
1 02789U 65082KR  13285.57025994  .00001936  00000-0  39678-3 0  6472
2 02789 032.2904 120.8802 0122003 291.3195 067.4058 14.54489890419182
0 TITAN 3C TRANSTAGE DEB
1 02789U 65082KR  13286.80573656  .00002305  00000-0  47469-3 0  6481
2 02789 032.2880 113.6582 0121034 302.0639 056.8302 14.54498782419360
0 TITAN 3C TRANSTAGE DEB
1 02789U 65082KR  13289.61987478  .00003428  00000-0  70995-3 0  6492
2 02789 032.2878 097.2465 0120994 327.0175 032.2968 14.54514606419775
0 TITAN 3C TRANSTAGE DEB
1 02789U 65082KR  13292.50264477  .00003205  00000-0  66350-3 0  6506
2 02789 032.2883 080.4331 0120802 352.5759 007.3101 14.54528917420196
0 TITAN 3C TRANSTAGE DEB
1 02789U 65082KR  13294.63038937  .00003940  00000-0  81734-3 0  6512
2 02789 032.2883 068.0228 0120679 011.4681 348.8676 14.54540726420507
